{"type": "FeatureCollection", "features": [ {"type": "Feature", "properties": {"norad_id": 32171, "name": "FENGYUN 1C DEB", "group": "fengyun-1c-debris", "lat": -63.90833587591798, "lon": 28.403533264449482, "alt_km": 1340.4838244333177, "timestamp": "2025-12-06T16:45:43.007865+00:00", "meta": {"OBJECT_NAME": "FENGYUN 1C DEB", "OBJECT_ID": "1999-025CTR", "EPOCH": "2025-12-03T23:12:12.508416", "MEAN_MOTION": 13.4243602, "ECCENTRICITY": 0.04879299, "INCLINATION": 102.8037, "RA_OF_ASC_NODE": 232.6035, "ARG_OF_PERICENTER": 24.8358, "MEAN_ANOMALY": 350.9132, "EPHEMERIS_TYPE": 0, "CLASSIFICATION_TYPE": "U", "NORAD_CAT_ID": 32171, "ELEMENT_SET_NO": 999, "REV_AT_EPOCH": 60498, "BSTAR": 0.0080316463, "MEAN_MOTION_DOT": 9.177e-05, "MEAN_MOTION_DDOT": 0}, "tle": {"line1": "1 32171U 99025CTR 25337.96681144  .00009177  00000+0  80316-2 0  9991", "line2": "2 32171 102.8037 232.6035 0487929  24.8358 350.9132 13.42436020604982"}}, "geometry": {"type": "Point", "coordinates": [28.403533264449482, -63.90833587591798]}}, {"type": "Feature", "properties": {"norad_id": 32174, "name": "FENGYUN 1C DEB", "group": "fengyun-1c-debris", "lat": -74.6821008653481, "lon": 76.57924287048124, "alt_km": 737.2684104516793, "timestamp": "2025-12-06T16:45:43.007876+00:00", "meta": {"OBJECT_NAME": "FENGYUN 1C DEB", "OBJECT_ID": "1999-025CTU", "EPOCH": "2025-11-24T10:25:59.655072", "MEAN_MOTION": 14.17883196, "ECCENTRICITY": 0.01501888, "INCLINATION": 98.6025, "RA_OF_ASC_NODE": 31.1449, "ARG_OF_PERICENTER": 298.935, "MEAN_ANOMALY": 59.6834, "EPHEMERIS_TYPE": 0, "CLASSIFICATION_TYPE": "U", "NORAD_CAT_ID": 32174, "ELEMENT_SET_NO": 999, "REV_AT_EPOCH": 63846, "BSTAR": 0.00027509636, "MEAN_MOTION_DOT": 5.84e-06, "MEAN_MOTION_DDOT": 0}, "tle": {"line1": "1 32174U 99025CTU 25328.43471823  .00000584  00000+0  27510-3 0  9998", "line2": "2 32174  98.6025  31.1449 0150188 298.9350  59.6834 14.17883196638460"}}, "geometry": {"type": "Point", "coordinates": [76.57924287048124, -74.6821008653481]}}, {"type": "Feature", "properties": {"norad_id": 32175, "name": "FENGYUN 1C DEB", "group": "fengyun-1c-debris", "lat": -46.03197930455032, "lon": -21.21011578712728, "alt_km": 818.6977047091877, "timestamp": "2025-12-06T16:45:43.007886+00:00", "meta": {"OBJECT_NAME": "FENGYUN 1C DEB", "OBJECT_ID": "1999-025CTV", "EPOCH": "2025-12-06T04:55:38.313984", "MEAN_MOTION": 13.94722773, "ECCENTRICITY": 0.01525952, "INCLINATION": 98.8227, "RA_OF_ASC_NODE": 329.0529, "ARG_OF_PERICENTER": 340.9555, "MEAN_ANOMALY": 18.5939, "EPHEMERIS_TYPE": 0, "CLASSIFICATION_TYPE": "U", "NORAD_CAT_ID": 32175, "ELEMENT_SET_NO": 999, "REV_AT_EPOCH": 59749, "BSTAR": 0.0048420972, "MEAN_MOTION_DOT": 7.108e-05, "MEAN_MOTION_DDOT": 0}, "tle": {"line1": "1 32175U 99025CTV 25340.20530456  .00007108  00000+0  48421-2 0  9998", "line2": "2 32175  98.8227 329.0529 0152595 340.9555  18.5939 13.94722773597498"}}, "geometry": {"type": "Point", "coordinates": [-21.21011578712728, -46.03197930455032]}}, {"type": "Feature", "properties": {"norad_id": 32177, "name": "FENGYUN 1C DEB", "group": "fengyun-1c-debris", "lat": -15.165930531315084, "lon": 167.02336835330556, "alt_km": 735.1938100351099, "timestamp": "2025-12-06T16:45:43.007896+00:00", "meta": {"OBJECT_NAME": "FENGYUN 1C DEB", "OBJECT_ID": "1999-025CTX", "EPOCH": "2025-12-05T06:53:19.340160", "MEAN_MOTION": 14.56077237, "ECCENTRICITY": 0.00522603, "INCLINATION": 99.0435, "RA_OF_ASC_NODE": 347.969, "ARG_OF_PERICENTER": 67.3526, "MEAN_ANOMALY": 293.3184, "EPHEMERIS_TYPE": 0, "CLASSIFICATION_TYPE": "U", "NORAD_CAT_ID": 32177, "ELEMENT_SET_NO": 999, "REV_AT_EPOCH": 70930, "BSTAR": 0.0027017242, "MEAN_MOTION_DOT": 0.00012094, "MEAN_MOTION_DDOT": 0}, "tle": {"line1": "1 32177U 99025CTX 25339.28702940  .00012094  00000+0  27017-2 0  9993", "line2": "2 32177  99.0435 347.9690 0052260  67.3526 293.3184 14.56077237709305"}}, "geometry": {"type": "Point", "coordinates": [167.02336835330556, -15.165930531315084]}}, {"type": "Feature", "properties": {"norad_id": 32178, "name": "FENGYUN 1C DEB", "group": "fengyun-1c-debris", "lat": 47.840506780830765, "lon": -30.476416537136902, "alt_km": 785.9826967671625, "timestamp": "2025-12-06T16:45:43.007906+00:00", "meta": {"OBJECT_NAME": "FENGYUN 1C DEB", "OBJECT_ID": "1999-025CTY", "EPOCH": "2025-12-05T05:05:50.358624", "MEAN_MOTION": 14.22916156, "ECCENTRICITY": 0.00948065, "INCLINATION": 100.303, "RA_OF_ASC_NODE": 339.377, "ARG_OF_PERICENTER": 344.1343, "MEAN_ANOMALY": 15.6865, "EPHEMERIS_TYPE": 0, "CLASSIFICATION_TYPE": "U", "NORAD_CAT_ID": 32178, "ELEMENT_SET_NO": 999, "REV_AT_EPOCH": 63896, "BSTAR": 0.0024599894, "MEAN_MOTION_DOT": 5.74e-05, "MEAN_MOTION_DDOT": 0}, "tle": {"line1": "1 32178U 99025CTY 25339.21238841  .00005740  00000+0  24600-2 0  9996", "line2": "2 32178 100.3030 339.3770 0094806 344.1343  15.6865 14.22916156638961"}}, "geometry": {"type": "Point", "coordinates": [-30.476416537136902, 47.840506780830765]}}, {"type": "Feature", "properties": {"norad_id": 32179, "name": "FENGYUN 1C DEB", "group": "fengyun-1c-debris", "lat": 56.94387285386272, "lon": -136.40053347396392, "alt_km": 864.5243074832542, "timestamp": "2025-12-06T16:45:43.007918+00:00", "meta": {"OBJECT_NAME": "FENGYUN 1C DEB", "OBJECT_ID": "1999-025CTZ", "EPOCH": "2025-12-06T02:37:34.524768", "MEAN_MOTION": 14.03675593, "ECCENTRICITY": 0.01448622, "INCLINATION": 98.9116, "RA_OF_ASC_NODE": 29.0712, "ARG_OF_PERICENTER": 208.3389, "MEAN_ANOMALY": 180.5722, "EPHEMERIS_TYPE": 0, "CLASSIFICATION_TYPE": "U", "NORAD_CAT_ID": 32179, "ELEMENT_SET_NO": 999, "REV_AT_EPOCH": 65635, "BSTAR": 0.00017310488, "MEAN_MOTION_DOT": 2.55e-06, "MEAN_MOTION_DDOT": 0}, "tle": {"line1": "1 32179U 99025CTZ 25340.10942737  .00000255  00000+0  17310-3 0  9990", "line2": "2 32179  98.9116  29.0712 0144862 208.3389 180.5722 14.03675593656350"}}, "geometry": {"type": "Point", "coordinates": [-136.40053347396392, 56.94387285386272]}}, {"type": "Feature", "properties": {"norad_id": 32180, "name": "FENGYUN 1C DEB", "group": "fengyun-1c-debris", "lat": 32.41356106849799, "lon": -153.12144920856247, "alt_km": 934.0223740438478, "timestamp": "2025-12-06T16:45:43.007929+00:00", "meta": {"OBJECT_NAME": "FENGYUN 1C DEB", "OBJECT_ID": "1999-025CUA", "EPOCH": "2025-12-05T21:47:22.571232", "MEAN_MOTION": 13.82324954, "ECCENTRICITY": 0.01361233, "INCLINATION": 99.5866, "RA_OF_ASC_NODE": 19.9146, "ARG_OF_PERICENTER": 228.508, "MEAN_ANOMALY": 308.1893, "EPHEMERIS_TYPE": 0, "CLASSIFICATION_TYPE": "U", "NORAD_CAT_ID": 32180, "ELEMENT_SET_NO": 999, "REV_AT_EPOCH": 94173, "BSTAR": 0.00018753413, "MEAN_MOTION_DOT": 1.7e-06, "MEAN_MOTION_DDOT": 0}, "tle": {"line1": "1 32180U 99025CUA 25339.90790013  .00000170  00000+0  18753-3 0  9994", "line2": "2 32180  99.5866  19.9146 0136123 228.5080 308.1893 13.82324954941737"}}, "geometry": {"type": "Point", "coordinates": [-153.12144920856247, 32.41356106849799]}}, {"type": "Feature", "properties": {"norad_id": 32181, "name": "FENGYUN 1C DEB", "group": "fengyun-1c-debris", "lat": -78.83619247912384, "lon": 141.46115789683793, "alt_km": 765.6034786328773, "timestamp": "2025-12-06T16:45:43.007940+00:00", "meta": {"OBJECT_NAME": "FENGYUN 1C DEB", "OBJECT_ID": "1999-025CUB", "EPOCH": "2025-12-05T13:10:15.372192", "MEAN_MOTION": 14.55951246, "ECCENTRICITY": 0.00741632, "INCLINATION": 99.4736, "RA_OF_ASC_NODE": 82.3665, "ARG_OF_PERICENTER": 106.6843, "MEAN_ANOMALY": 266.8513, "EPHEMERIS_TYPE": 0, "CLASSIFICATION_TYPE": "U", "NORAD_CAT_ID": 32181, "ELEMENT_SET_NO": 999, "REV_AT_EPOCH": 96616, "BSTAR": 0.0021259897, "MEAN_MOTION_DOT": 9.651e-05, "MEAN_MOTION_DDOT": 0}, "tle": {"line1": "1 32181U 99025CUB 25339.54878903  .00009651  00000+0  21260-2 0  9999", "line2": "2 32181  99.4736  82.3665 0074163 106.6843 266.8513 14.55951246966165"}}, "geometry": {"type": "Point", "coordinates": [141.46115789683793, -78.83619247912384]}}, {"type": "Feature", "properties": {"norad_id": 32183, "name": "FENGYUN 1C DEB", "group": "fengyun-1c-debris", "lat": 6.633509700076751, "lon": 31.068511280551746, "alt_km": 850.7662428617678, "timestamp": "2025-12-06T16:45:43.007951+00:00", "meta": {"OBJECT_NAME": "FENGYUN 1C DEB", "OBJECT_ID": "1999-025CUD", "EPOCH": "2025-12-02T20:46:03.470880", "MEAN_MOTION": 14.1004773, "ECCENTRICITY": 0.00432965, "INCLINATION": 98.7142, "RA_OF_ASC_NODE": 28.3779, "ARG_OF_PERICENTER": 88.5408, "MEAN_ANOMALY": 272.0723, "EPHEMERIS_TYPE": 0, "CLASSIFICATION_TYPE": "U", "NORAD_CAT_ID": 32183, "ELEMENT_SET_NO": 999, "REV_AT_EPOCH": 72625, "BSTAR": 0.00090671194, "MEAN_MOTION_DOT": 1.573e-05, "MEAN_MOTION_DDOT": 0}, "tle": {"line1": "1 32183U 99025CUD 25336.86531795  .00001573  00000+0  90671-3 0  9996", "line2": "2 32183  98.7142  28.3779 0043296  88.5408 272.0723 14.10047730726255"}}, "geometry": {"type": "Point", "coordinates": [31.068511280551746, 6.633509700076751]}}, {"type": "Feature", "properties": {"norad_id": 32184, "name": "FENGYUN 1C DEB", "group": "fengyun-1c-debris", "lat": -9.165387730951954, "lon": -61.98543143800296, "alt_km": 492.47164665665514, "timestamp": "2025-12-06T16:45:43.007962+00:00", "meta": {"OBJECT_NAME": "FENGYUN 1C DEB", "OBJECT_ID": "1999-025CUE", "EPOCH": "2025-11-29T15:43:46.172928", "MEAN_MOTION": 15.41247728, "ECCENTRICITY": 0.00737208, "INCLINATION": 98.1191, "RA_OF_ASC_NODE": 111.5023, "ARG_OF_PERICENTER": 34.712, "MEAN_ANOMALY": 325.8902, "EPHEMERIS_TYPE": 0, "CLASSIFICATION_TYPE": "U", "NORAD_CAT_ID": 32184, "ELEMENT_SET_NO": 999, "REV_AT_EPOCH": 98202, "BSTAR": 0.0018533746, "MEAN_MOTION_DOT": 0.00085629, "MEAN_MOTION_DDOT": 0}, "tle": {"line1": "1 32184U 99025CUE 25333.65539552  .00085629  00000+0  18534-2 0  9991", "line2": "2 32184  98.1191 111.5023 0073720  34.7120 325.8902 15.41247728982029"}}, "geometry": {"type": "Point", "coordinates": [-61.98543143800296, -9.165387730951954]}}]}